[{"OBJECT_NAME":"ICEYE-X2","OBJECT_ID":"2018-099AU","EPOCH":"2026-03-09T22:35:53.986848","MEAN_MOTION":15.16430937,"ECCENTRICITY":0.00088624,"INCLINATION":97.4491,"RA_OF_ASC_NODE":124.5633,"ARG_OF_PERICENTER":290.4063,"MEAN_ANOMALY":69.6218,"EPHEMERIS_TYPE":0,"CLASSIFICATION_TYPE":"U","NORAD_CAT_ID":43800,"ELEMENT_SET_NO":999,"REV_AT_EPOCH":39777,"BSTAR":0.00020585187,"MEAN_MOTION_DOT":3.939e-5,"MEAN_MOTION_DDOT":0},{"OBJECT_NAME":"FLOCK 4H-3","OBJECT_ID":"2025-276AS","EPOCH":"2026-03-09T22:45:50.100192","MEAN_MOTION":15.18704804,"ECCENTRICITY":0.00037272,"INCLINATION":97.4304,"RA_OF_ASC_NODE":144.2438,"ARG_OF_PERICENTER":9.3748,"MEAN_ANOMALY":350.7555,"EPHEMERIS_TYPE":0,"CLASSIFICATION_TYPE":"U","NORAD_CAT_ID":66706,"ELEMENT_SET_NO":999,"REV_AT_EPOCH":1535,"BSTAR":0.00044066638,"MEAN_MOTION_DOT":9.081e-5,"MEAN_MOTION_DDOT":0}]
